{
  "type": "PointsCollection",
  "points": [
    {
      "type": "node",
      "id": "1",
      "lat": 54.4274039367202,
      "lon": 18.485926200386512,
      "geometry": {
        "type": "Point",
        "coordinates": [18.485926200386512, 54.4274039367202]
      },
      "tags": {
        "name": "Automat Kaucyjny",
        "items": "puszki",
        "opening_hours": "Mo-Fr 08:00-20:00; Sa-Su 10:00-18:00",
        "addr:city": "Gdańsk",
        "addr:street": "Galaktyczna",
        "addr:housenumber": "1"
      }
    },
    {
      "type": "node",
      "id": "2",
      "lat": 54.42708690216307,
      "lon": 18.484148498922533,
      "geometry": {
        "type": "Point",
        "coordinates": [18.484148498922533, 54.42708690216307]
      },
      "tags": {
        "name": "Automat Kaucyjny",
        "items": "szkło",
        "opening_hours": "Mo-Su 09:00-21:00",
        "addr:city": "Gdańsk",
        "addr:street": "Feniksa",
        "addr:housenumber": "9"
      }
    }
  ]
}




